{
  "type": "FeatureCollection",
  "features": [
    {
      "type": "Feature",
      "properties": {
        "norad_id": 30693,
        "name": "FENGYUN 1C DEB",
        "group": "fengyun-1c-debris",
        "lat": 65.12666342353361,
        "lon": -40.62477782287095,
        "alt_km": 838.3165807522055,
        "timestamp": "2025-12-19T16:54:44.539645+00:00",
        "meta_object_name": "FENGYUN 1C DEB",
        "meta_object_id": "1999-025ARB",
        "meta_epoch": "2025-12-18T21:54:26.525664",
        "meta_mean_motion": 14.13294027,
        "meta_eccentricity": 0.00295893,
        "meta_inclination": 98.6861,
        "meta_ra_of_asc_node": 337.8591,
        "meta_arg_of_pericenter": 149.8755,
        "meta_mean_anomaly": 210.4127,
        "meta_ephemeris_type": 0,
        "meta_classification_type": "U",
        "meta_norad_cat_id": 30693,
        "meta_element_set_no": 999,
        "meta_rev_at_epoch": 97022,
        "meta_bstar": 0.00025338298,
        "meta_mean_motion_dot": 4.35e-06,
        "meta_mean_motion_ddot": 0,
        "tle_line1": "1 30693U 99025ARB 25352.91280701  .00000435  00000+0  25338-3 0  9996",
        "tle_line2": "2 30693  98.6861 337.8591 0029589 149.8755 210.4127 14.13294027970229"
      },
      "geometry": {
        "type": "Point",
        "coordinates": [
          -40.62477782287095,
          65.12666342353361
        ]
      }
    },
    {
      "type": "Feature",
      "properties": {
        "norad_id": 30694,
        "name": "FENGYUN 1C DEB",
        "group": "fengyun-1c-debris",
        "lat": -2.8263110729361394,
        "lon": -38.68667233437452,
        "alt_km": 602.3888507868196,
        "timestamp": "2025-12-19T16:54:44.539657+00:00",
        "meta_object_name": "FENGYUN 1C DEB",
        "meta_object_id": "1999-025ARC",
        "meta_epoch": "2025-12-19T04:00:09.511200",
        "meta_mean_motion": 14.86650132,
        "meta_eccentricity": 0.01297708,
        "meta_inclination": 99.0473,
        "meta_ra_of_asc_node": 320.2507,
        "meta_arg_of_pericenter": 274.1399,
        "meta_mean_anomaly": 84.499,
        "meta_ephemeris_type": 0,
        "meta_classification_type": "U",
        "meta_norad_cat_id": 30694,
        "meta_element_set_no": 999,
        "meta_rev_at_epoch": 191,
        "meta_bstar": 0.0010348979,
        "meta_mean_motion_dot": 0.0001065,
        "meta_mean_motion_ddot": 0,
        "tle_line1": "1 30694U 99025ARC 25353.16677675  .00010650  00000+0  10349-2 0  9990",
        "tle_line2": "2 30694  99.0473 320.2507 0129770 274.1399  84.4990 14.86650132  1917"
      },
      "geometry": {
        "type": "Point",
        "coordinates": [
          -38.68667233437452,
          -2.8263110729361394
        ]
      }
    },
    {
      "type": "Feature",
      "properties": {
        "norad_id": 30696,
        "name": "FENGYUN 1C DEB",
        "group": "fengyun-1c-debris",
        "lat": -31.319997057648578,
        "lon": 47.78516013597491,
        "alt_km": 794.8434639571624,
        "timestamp": "2025-12-19T16:54:44.539667+00:00",
        "meta_object_name": "FENGYUN 1C DEB",
        "meta_object_id": "1999-025ARE",
        "meta_epoch": "2025-12-19T02:23:17.881728",
        "meta_mean_motion": 14.44796762,
        "meta_eccentricity": 0.00898258,
        "meta_inclination": 98.3883,
        "meta_ra_of_asc_node": 42.0365,
        "meta_arg_of_pericenter": 106.7547,
        "meta_mean_anomaly": 316.5449,
        "meta_ephemeris_type": 0,
        "meta_classification_type": "U",
        "meta_norad_cat_id": 30696,
        "meta_element_set_no": 999,
        "meta_rev_at_epoch": 98396,
        "meta_bstar": 0.00059067117,
        "meta_mean_motion_dot": 2.111e-05,
        "meta_mean_motion_ddot": 0,
        "tle_line1": "1 30696U 99025ARE 25353.09951252  .00002111  00000+0  59067-3 0  9994",
        "tle_line2": "2 30696  98.3883  42.0365 0089825 106.7547 316.5449 14.44796762983964"
      },
      "geometry": {
        "type": "Point",
        "coordinates": [
          47.78516013597491,
          -31.319997057648578
        ]
      }
    },
    {
      "type": "Feature",
      "properties": {
        "norad_id": 30697,
        "name": "FENGYUN 1C DEB",
        "group": "fengyun-1c-debris",
        "lat": 35.32094902189462,
        "lon": 44.13801091331674,
        "alt_km": 885.3173636335914,
        "timestamp": "2025-12-19T16:54:44.539677+00:00",
        "meta_object_name": "FENGYUN 1C DEB",
        "meta_object_id": "1999-025ARF",
        "meta_epoch": "2025-12-19T03:16:58.330272",
        "meta_mean_motion": 14.13555386,
        "meta_eccentricity": 0.00881462,
        "meta_inclination": 98.9061,
        "meta_ra_of_asc_node": 49.9519,
        "meta_arg_of_pericenter": 167.4269,
        "meta_mean_anomaly": 220.9571,
        "meta_ephemeris_type": 0,
        "meta_classification_type": "U",
        "meta_norad_cat_id": 30697,
        "meta_element_set_no": 999,
        "meta_rev_at_epoch": 96351,
        "meta_bstar": 0.0010953596,
        "meta_mean_motion_dot": 2.098e-05,
        "meta_mean_motion_ddot": 0,
        "tle_line1": "1 30697U 99025ARF 25353.13678623  .00002098  00000+0  10954-2 0  9993",
        "tle_line2": "2 30697  98.9061  49.9519 0088146 167.4269 220.9571 14.13555386963510"
      },
      "geometry": {
        "type": "Point",
        "coordinates": [
          44.13801091331674,
          35.32094902189462
        ]
      }
    },
    {
      "type": "Feature",
      "properties": {
        "norad_id": 30699,
        "name": "FENGYUN 1C DEB",
        "group": "fengyun-1c-debris",
        "lat": -73.54736894802312,
        "lon": 147.62382529786643,
        "alt_km": 740.3328298846545,
        "timestamp": "2025-12-19T16:54:44.539687+00:00",
        "meta_object_name": "FENGYUN 1C DEB",
        "meta_object_id": "1999-025ARH",
        "meta_epoch": "2025-12-18T06:24:54.357120",
        "meta_mean_motion": 14.47020065,
        "meta_eccentricity": 0.00046441,
        "meta_inclination": 99.312,
        "meta_ra_of_asc_node": 112.292,
        "meta_arg_of_pericenter": 241.1895,
        "meta_mean_anomaly": 118.8828,
        "meta_ephemeris_type": 0,
        "meta_classification_type": "U",
        "meta_norad_cat_id": 30699,
        "meta_element_set_no": 999,
        "meta_rev_at_epoch": 97693,
        "meta_bstar": 0.0018584951,
        "meta_mean_motion_dot": 6.717e-05,
        "meta_mean_motion_ddot": 0,
        "tle_line1": "1 30699U 99025ARH 25352.26729580  .00006717  00000+0  18585-2 0  9997",
        "tle_line2": "2 30699  99.3120 112.2920 0004644 241.1895 118.8828 14.47020065976937"
      },
      "geometry": {
        "type": "Point",
        "coordinates": [
          147.62382529786643,
          -73.54736894802312
        ]
      }
    },
    {
      "type": "Feature",
      "properties": {
        "norad_id": 30700,
        "name": "FENGYUN 1C DEB",
        "group": "fengyun-1c-debris",
        "lat": 24.03361174156259,
        "lon": -154.33762118872227,
        "alt_km": 758.6824011253857,
        "timestamp": "2025-12-19T16:54:44.539698+00:00",
        "meta_object_name": "FENGYUN 1C DEB",
        "meta_object_id": "1999-025ARJ",
        "meta_epoch": "2025-12-19T01:00:39.995712",
        "meta_mean_motion": 14.23799439,
        "meta_eccentricity": 0.00873714,
        "meta_inclination": 98.5409,
        "meta_ra_of_asc_node": 21.1764,
        "meta_arg_of_pericenter": 125.1167,
        "meta_mean_anomaly": 235.8241,
        "meta_ephemeris_type": 0,
        "meta_classification_type": "U",
        "meta_norad_cat_id": 30700,
        "meta_element_set_no": 999,
        "meta_rev_at_epoch": 97659,
        "meta_bstar": 0.00014401108,
        "meta_mean_motion_dot": 3.01e-06,
        "meta_mean_motion_ddot": 0,
        "tle_line1": "1 30700U 99025ARJ 25353.04212958  .00000301  00000+0  14401-3 0  9990",
        "tle_line2": "2 30700  98.5409  21.1764 0087371 125.1167 235.8241 14.23799439976599"
      },
      "geometry": {
        "type": "Point",
        "coordinates": [
          -154.33762118872227,
          24.03361174156259
        ]
      }
    },
    {
      "type": "Feature",
      "properties": {
        "norad_id": 30701,
        "name": "FENGYUN 1C DEB",
        "group": "fengyun-1c-debris",
        "lat": -74.43753700895218,
        "lon": 68.26124742833231,
        "alt_km": 877.559030593713,
        "timestamp": "2025-12-19T16:54:44.539708+00:00",
        "meta_object_name": "FENGYUN 1C DEB",
        "meta_object_id": "1999-025ARK",
        "meta_epoch": "2025-12-18T23:09:23.256000",
        "meta_mean_motion": 14.13934991,
        "meta_eccentricity": 0.00357441,
        "meta_inclination": 98.7175,
        "meta_ra_of_asc_node": 34.1095,
        "meta_arg_of_pericenter": 85.5407,
        "meta_mean_anomaly": 33.8173,
        "meta_ephemeris_type": 0,
        "meta_classification_type": "U",
        "meta_norad_cat_id": 30701,
        "meta_element_set_no": 999,
        "meta_rev_at_epoch": 97207,
        "meta_bstar": 2.0813355e-05,
        "meta_mean_motion_dot": -3e-08,
        "meta_mean_motion_ddot": 0,
        "tle_line1": "1 30701U 99025ARK 25352.96485250 -.00000003  00000+0  20813-4 0  9993",
        "tle_line2": "2 30701  98.7175  34.1095 0035744  85.5407  33.8173 14.13934991972078"
      },
      "geometry": {
        "type": "Point",
        "coordinates": [
          68.26124742833231,
          -74.43753700895218
        ]
      }
    }
  ]
}